{
	"data": [
		{
			"starRating": 5,
			"name": "Carl von dornhorn",
			"areasServed": ["loolxr", "Calfiron", "Muajrxrr"],
			"numProperties": 4,
			"city": "Los Angeles",
			"state": "California",
			"zip": "168621"
		},
		{
			"starRating": 4.46,
			"name": "Muah oorxrg",
			"areasServed": ["xxgg", "zzfx", "Muajrxrr"],
			"numProperties": 2,
			"city": "Los Angeles",
			"state": "California",
			"zip": "168621"
		},
		{
			"starRating": 3.2,
			"name": "Good ozozizxx",
			"areasServed": ["loolxr", "Calfiron", "Muajrxrr"],
			"numProperties": 4,
			"city": "Los Angeles",
			"state": "California",
			"zip": "168621"
		},
		{
			"starRating": 4,
			"name": "Boho sohaarx",
			"areasServed": ["loolxr", "Calfiron", "Muajrxrr"],
			"numProperties": 4,
			"city": "Los Angeles",
			"state": "California",
			"zip": "168621"
		},
		{
			"starRating": 5,
			"name": "Carl von dornhorn",
			"areasServed": ["loolxr", "Calfiron", "Muajrxrr"],
			"numProperties": 4,
			"city": "Los Angeles",
			"state": "California",
			"zip": "168621"
		},
		{
			"starRating": 4.56,
			"name": "Muah oorxrg",
			"areasServed": ["xxgg", "zzfx", "Muajrxrr"],
			"numProperties": 2,
			"city": "Los Angeles",
			"state": "California",
			"zip": "168621"
		},
		{
			"starRating": 3.2,
			"name": "Good ozozizxx",
			"areasServed": ["loolxr", "Calfiron", "Muajrxrr"],
			"numProperties": 4,
			"city": "Los Angeles",
			"state": "California",
			"zip": "168621"
		},
		{
			"starRating": 4.8,
			"name": "Boho sohaarx",
			"areasServed": ["loolxr", "Calfiron", "Muajrxrr"],
			"numProperties": 4,
			"city": "Los Angeles",
			"state": "California",
			"zip": "168621"
		},
		{
			"starRating": 5,
			"name": "Carl von dornhorn",
			"areasServed": ["loolxr", "Calfiron", "Muajrxrr"],
			"numProperties": 4,
			"city": "Los Angeles",
			"state": "California",
			"zip": "168621"
		},
		{
			"starRating": 4.56,
			"name": "Muah oorxrg",
			"areasServed": ["xxgg", "zzfx", "Muajrxrr"],
			"numProperties": 2,
			"city": "Los Angeles",
			"state": "California",
			"zip": "168621"
		},
		{
			"starRating": 3.2,
			"name": "Good ozozizxx",
			"areasServed": ["loolxr", "Calfiron", "Muajrxrr"],
			"numProperties": 4,
			"city": "Los Angeles",
			"state": "California",
			"zip": "168621"
		},
		{
			"starRating": 4.8,
			"name": "Boho sohaarx",
			"areasServed": ["loolxr", "Calfiron", "Muajrxrr"],
			"numProperties": 4,
			"city": "Los Angeles",
			"state": "California",
			"zip": "168621"
		},
		{
			"starRating": 5,
			"name": "Carl von dornhorn",
			"areasServed": ["loolxr", "Calfiron", "Muajrxrr"],
			"numProperties": 4,
			"city": "Los Angeles",
			"state": "California",
			"zip": "168621"
		},
		{
			"starRating": 4.56,
			"name": "Muah oorxrg",
			"areasServed": ["xxgg", "zzfx", "Muajrxrr"],
			"numProperties": 2,
			"city": "Los Angeles",
			"state": "California",
			"zip": "168621"
		},
		{
			"starRating": 3.2,
			"name": "Good ozozizxx",
			"areasServed": ["loolxr", "Calfiron", "Muajrxrr"],
			"numProperties": 4,
			"city": "Los Angeles",
			"state": "California",
			"zip": "168621"
		},
		{
			"starRating": 4.8,
			"name": "Boho sohaarx",
			"areasServed": ["loolxr", "Calfiron", "Muajrxrr"],
			"numProperties": 4,
			"city": "Los Angeles",
			"state": "California",
			"zip": "168621"
		},
		{
			"starRating": 5,
			"name": "Carl von dornhorn",
			"areasServed": ["loolxr", "Calfiron", "Muajrxrr"],
			"numProperties": 4,
			"city": "Los Angeles",
			"state": "California",
			"zip": "168621"
		},
		{
			"starRating": 4.56,
			"name": "Muah oorxrg",
			"areasServed": ["xxgg", "zzfx", "Muajrxrr"],
			"numProperties": 2,
			"city": "Los Angeles",
			"state": "California",
			"zip": "168621"
		},
		{
			"starRating": 3.2,
			"name": "Good ozozizxx",
			"areasServed": ["loolxr", "Calfiron", "Muajrxrr"],
			"numProperties": 4,
			"city": "Los Angeles",
			"state": "California",
			"zip": "168621"
		},
		{
			"starRating": 4.8,
			"name": "Boho sohaarx",
			"areasServed": ["loolxr", "Calfiron", "Muajrxrr"],
			"numProperties": 4,
			"city": "Los Angeles",
			"state": "California",
			"zip": "168621"
		},
		{
			"starRating": 5,
			"name": "Carl von dornhorn",
			"areasServed": ["loolxr", "Calfiron", "Muajrxrr"],
			"numProperties": 4,
			"city": "Los Angeles",
			"state": "California",
			"zip": "168621"
		},
		{
			"starRating": 4.56,
			"name": "Muah oorxrg",
			"areasServed": ["xxgg", "zzfx", "Muajrxrr"],
			"numProperties": 2,
			"city": "Los Angeles",
			"state": "California",
			"zip": "168621"
		},
		{
			"starRating": 3.2,
			"name": "Good ozozizxx",
			"areasServed": ["loolxr", "Calfiron", "Muajrxrr"],
			"numProperties": 4,
			"city": "Los Angeles",
			"state": "California",
			"zip": "168621"
		},
		{
			"starRating": 4.8,
			"name": "Boho sohaarx",
			"areasServed": ["loolxr", "Calfiron", "Muajrxrr"],
			"numProperties": 4,
			"city": "Los Angeles",
			"state": "California",
			"zip": "168621"
		}
	]
}
